CCSDS_OMM_VERS = 2.0
CREATION_DATE  = 
ORIGINATOR     = 

OBJECT_NAME    = STARLINK-36730
OBJECT_ID      = 2026-034AA
CENTER_NAME    = EARTH
REF_FRAME      = TEME
TIME_SYSTEM    = UTC
MEAN_ELEMENT_THEORY = SGP/SGP4

EPOCH          = 2026-03-06T00:00:02.000160
MEAN_MOTION    = 15.80822103
ECCENTRICITY   = .00011773
INCLINATION    = 53.1593
RA_OF_ASC_NODE = 229.6346
ARG_OF_PERICENTER = 59.0797
MEAN_ANOMALY   = 34.1204

EPHEMERIS_TYPE = 0
CLASSIFICATION_TYPE = U
NORAD_CAT_ID   = 67874
ELEMENT_SET_NO = 999
REV_AT_EPOCH   = 326
BSTAR          = .49017606E-3
MEAN_MOTION_DOT = .96909E-3
MEAN_MOTION_DDOT = 0

CCSDS_OMM_VERS = 2.0
CREATION_DATE  = 
ORIGINATOR     = 

OBJECT_NAME    = STARLINK-36727
OBJECT_ID      = 2026-034AB
CENTER_NAME    = EARTH
REF_FRAME      = TEME
TIME_SYSTEM    = UTC
MEAN_ELEMENT_THEORY = SGP/SGP4

EPOCH          = 2026-03-06T00:00:02.000160
MEAN_MOTION    = 15.80835052
ECCENTRICITY   = .00010557
INCLINATION    = 53.1594
RA_OF_ASC_NODE = 229.6256
ARG_OF_PERICENTER = 50.1225
MEAN_ANOMALY   = 47.3455

EPHEMERIS_TYPE = 0
CLASSIFICATION_TYPE = U
NORAD_CAT_ID   = 67875
ELEMENT_SET_NO = 999
REV_AT_EPOCH   = 326
BSTAR          = .32710632E-3
MEAN_MOTION_DOT = .64229E-3
MEAN_MOTION_DDOT = 0

CCSDS_OMM_VERS = 2.0
CREATION_DATE  = 
ORIGINATOR     = 

OBJECT_NAME    = STARLINK-36743
OBJECT_ID      = 2026-034AC
CENTER_NAME    = EARTH
REF_FRAME      = TEME
TIME_SYSTEM    = UTC
MEAN_ELEMENT_THEORY = SGP/SGP4

EPOCH          = 2026-03-06T00:00:02.000160
MEAN_MOTION    = 15.80817859
ECCENTRICITY   = .00009999
INCLINATION    = 53.1595
RA_OF_ASC_NODE = 229.6162
ARG_OF_PERICENTER = 40.8300
MEAN_ANOMALY   = 60.9158

EPHEMERIS_TYPE = 0
CLASSIFICATION_TYPE = U
NORAD_CAT_ID   = 67876
ELEMENT_SET_NO = 999
REV_AT_EPOCH   = 326
BSTAR          = .44913685E-3
MEAN_MOTION_DOT = .88633E-3
MEAN_MOTION_DDOT = 0

CCSDS_OMM_VERS = 2.0
CREATION_DATE  = 
ORIGINATOR     = 

OBJECT_NAME    = STARLINK-36784
OBJECT_ID      = 2026-034AD
CENTER_NAME    = EARTH
REF_FRAME      = TEME
TIME_SYSTEM    = UTC
MEAN_ELEMENT_THEORY = SGP/SGP4

EPOCH          = 2026-03-06T04:06:21.737088
MEAN_MOTION    = 15.80964162
ECCENTRICITY   = .00010227
INCLINATION    = 53.1604
RA_OF_ASC_NODE = 228.7493
ARG_OF_PERICENTER = 18.1823
MEAN_ANOMALY   = 341.9236

EPHEMERIS_TYPE = 0
CLASSIFICATION_TYPE = U
NORAD_CAT_ID   = 67877
ELEMENT_SET_NO = 999
REV_AT_EPOCH   = 338
BSTAR          = .14508854E-2
MEAN_MOTION_DOT = .296973E-2
MEAN_MOTION_DDOT = 0

CCSDS_OMM_VERS = 2.0
CREATION_DATE  = 
ORIGINATOR     = 

OBJECT_NAME    = STARLINK-36689
OBJECT_ID      = 2026-034AE
CENTER_NAME    = EARTH
REF_FRAME      = TEME
TIME_SYSTEM    = UTC
MEAN_ELEMENT_THEORY = SGP/SGP4

EPOCH          = 2026-03-06T00:00:02.000160
MEAN_MOTION    = 15.80829782
ECCENTRICITY   = .00012148
INCLINATION    = 53.1593
RA_OF_ASC_NODE = 229.5990
ARG_OF_PERICENTER = 72.9564
MEAN_ANOMALY   = 37.3315

EPHEMERIS_TYPE = 0
CLASSIFICATION_TYPE = U
NORAD_CAT_ID   = 67878
ELEMENT_SET_NO = 999
REV_AT_EPOCH   = 326
BSTAR          = .31031555E-3
MEAN_MOTION_DOT = .60858E-3
MEAN_MOTION_DDOT = 0

CCSDS_OMM_VERS = 2.0
CREATION_DATE  = 
ORIGINATOR     = 

OBJECT_NAME    = STARLINK-36818
OBJECT_ID      = 2026-035A
CENTER_NAME    = EARTH
REF_FRAME      = TEME
TIME_SYSTEM    = UTC
MEAN_ELEMENT_THEORY = SGP/SGP4

EPOCH          = 2026-03-06T06:00:02.000160
MEAN_MOTION    = 15.95168120
ECCENTRICITY   = .0001305
INCLINATION    = 97.2760
RA_OF_ASC_NODE = 357.3220
ARG_OF_PERICENTER = 123.4447
MEAN_ANOMALY   = 166.2094

EPHEMERIS_TYPE = 0
CLASSIFICATION_TYPE = U
NORAD_CAT_ID   = 67879
ELEMENT_SET_NO = 999
REV_AT_EPOCH   = 320
BSTAR          = -.24212327E-2
MEAN_MOTION_DOT = -.938602E-2
MEAN_MOTION_DDOT = .27644126E-3

CCSDS_OMM_VERS = 2.0
CREATION_DATE  = 
ORIGINATOR     = 

OBJECT_NAME    = STARLINK-36821
OBJECT_ID      = 2026-035B
CENTER_NAME    = EARTH
REF_FRAME      = TEME
TIME_SYSTEM    = UTC
MEAN_ELEMENT_THEORY = SGP/SGP4

EPOCH          = 2026-03-06T06:00:02.000160
MEAN_MOTION    = 15.95315818
ECCENTRICITY   = .00013009
INCLINATION    = 97.2754
RA_OF_ASC_NODE = 357.3252
ARG_OF_PERICENTER = 122.5958
MEAN_ANOMALY   = 174.3851

EPHEMERIS_TYPE = 0
CLASSIFICATION_TYPE = U
NORAD_CAT_ID   = 67880
ELEMENT_SET_NO = 999
REV_AT_EPOCH   = 320
BSTAR          = -.24293071E-2
MEAN_MOTION_DOT = -.949107E-2
MEAN_MOTION_DDOT = .28266086E-3

CCSDS_OMM_VERS = 2.0
CREATION_DATE  = 
ORIGINATOR     = 

OBJECT_NAME    = STARLINK-36808
OBJECT_ID      = 2026-035C
CENTER_NAME    = EARTH
REF_FRAME      = TEME
TIME_SYSTEM    = UTC
MEAN_ELEMENT_THEORY = SGP/SGP4

EPOCH          = 2026-03-06T06:00:02.000160
MEAN_MOTION    = 15.95245627
ECCENTRICITY   = .00011014
INCLINATION    = 97.2754
RA_OF_ASC_NODE = 357.3231
ARG_OF_PERICENTER = 112.0351
MEAN_ANOMALY   = 180.4869

EPHEMERIS_TYPE = 0
CLASSIFICATION_TYPE = U
NORAD_CAT_ID   = 67881
ELEMENT_SET_NO = 999
REV_AT_EPOCH   = 320
BSTAR          = -.24434961E-2
MEAN_MOTION_DOT = -.951045E-2
MEAN_MOTION_DDOT = .28352538E-3

CCSDS_OMM_VERS = 2.0
CREATION_DATE  = 
ORIGINATOR     = 

OBJECT_NAME    = STARLINK-36817
OBJECT_ID      = 2026-035D
CENTER_NAME    = EARTH
REF_FRAME      = TEME
TIME_SYSTEM    = UTC
MEAN_ELEMENT_THEORY = SGP/SGP4

EPOCH          = 2026-03-06T06:00:02.000160
MEAN_MOTION    = 15.95459956
ECCENTRICITY   = .00011553
INCLINATION    = 97.2745
RA_OF_ASC_NODE = 357.3283
ARG_OF_PERICENTER = 110.9056
MEAN_ANOMALY   = 194.8390

EPHEMERIS_TYPE = 0
CLASSIFICATION_TYPE = U
NORAD_CAT_ID   = 67882
ELEMENT_SET_NO = 999
REV_AT_EPOCH   = 320
BSTAR          = -.24555508E-2
MEAN_MOTION_DOT = -.966635E-2
MEAN_MOTION_DDOT = .29288466E-3

CCSDS_OMM_VERS = 2.0
CREATION_DATE  = 
ORIGINATOR     = 

OBJECT_NAME    = STARLINK-36856
OBJECT_ID      = 2026-035E
CENTER_NAME    = EARTH
REF_FRAME      = TEME
TIME_SYSTEM    = UTC
MEAN_ELEMENT_THEORY = SGP/SGP4

EPOCH          = 2026-03-06T06:00:02.000160
MEAN_MOTION    = 15.95388685
ECCENTRICITY   = .00011443
INCLINATION    = 97.2750
RA_OF_ASC_NODE = 357.3269
ARG_OF_PERICENTER = 118.4384
MEAN_ANOMALY   = 183.1889

EPHEMERIS_TYPE = 0
CLASSIFICATION_TYPE = U
NORAD_CAT_ID   = 67883
ELEMENT_SET_NO = 999
REV_AT_EPOCH   = 320
BSTAR          = -.24403344E-2
MEAN_MOTION_DOT = -.957059E-2
MEAN_MOTION_DDOT = .28729923E-3

CCSDS_OMM_VERS = 2.0
CREATION_DATE  = 
ORIGINATOR     = 

OBJECT_NAME    = STARLINK-36842
OBJECT_ID      = 2026-035F
CENTER_NAME    = EARTH
REF_FRAME      = TEME
TIME_SYSTEM    = UTC
MEAN_ELEMENT_THEORY = SGP/SGP4

EPOCH          = 2026-03-06T06:00:02.000160
MEAN_MOTION    = 15.95550361
ECCENTRICITY   = .00010936
INCLINATION    = 97.2744
RA_OF_ASC_NODE = 357.3299
ARG_OF_PERICENTER = 105.9520
MEAN_ANOMALY   = 203.6521

EPHEMERIS_TYPE = 0
CLASSIFICATION_TYPE = U
NORAD_CAT_ID   = 67884
ELEMENT_SET_NO = 999
REV_AT_EPOCH   = 320
BSTAR          = -.25369053E-2
MEAN_MOTION_DOT = -.1003222E-1
MEAN_MOTION_DDOT = .31410125E-3

CCSDS_OMM_VERS = 2.0
CREATION_DATE  = 
ORIGINATOR     = 

OBJECT_NAME    = STARLINK-36826
OBJECT_ID      = 2026-035G
CENTER_NAME    = EARTH
REF_FRAME      = TEME
TIME_SYSTEM    = UTC
MEAN_ELEMENT_THEORY = SGP/SGP4

EPOCH          = 2026-03-06T06:00:02.000160
MEAN_MOTION    = 15.95633689
ECCENTRICITY   = .00011733
INCLINATION    = 97.2743
RA_OF_ASC_NODE = 357.3315
ARG_OF_PERICENTER = 118.2614
MEAN_ANOMALY   = 194.5025

EPHEMERIS_TYPE = 0
CLASSIFICATION_TYPE = U
NORAD_CAT_ID   = 67885
ELEMENT_SET_NO = 999
REV_AT_EPOCH   = 320
BSTAR          = -.25825469E-2
MEAN_MOTION_DOT = -.1025675E-1
MEAN_MOTION_DDOT = .32755544E-3

